[{"OBJECT_NAME":"STARLINK-6089","OBJECT_ID":"2023-046D","EPOCH":"2026-03-09T22:00:01.999584","MEAN_MOTION":15.05122936,"ECCENTRICITY":0.00015988,"INCLINATION":43.0015,"RA_OF_ASC_NODE":157.9037,"ARG_OF_PERICENTER":270.4707,"MEAN_ANOMALY":100.9423,"EPHEMERIS_TYPE":0,"CLASSIFICATION_TYPE":"U","NORAD_CAT_ID":56096,"ELEMENT_SET_NO":999,"REV_AT_EPOCH":573,"BSTAR":0.00027748875,"MEAN_MOTION_DOT":3.81e-5,"MEAN_MOTION_DDOT":0},{"OBJECT_NAME":"MUSAT-2","OBJECT_ID":"2024-043B","EPOCH":"2026-03-09T22:04:01.255008","MEAN_MOTION":15.07177436,"ECCENTRICITY":0.0006495,"INCLINATION":97.8438,"RA_OF_ASC_NODE":205.4399,"ARG_OF_PERICENTER":314.3478,"MEAN_ANOMALY":45.7216,"EPHEMERIS_TYPE":0,"CLASSIFICATION_TYPE":"U","NORAD_CAT_ID":59099,"ELEMENT_SET_NO":999,"REV_AT_EPOCH":11013,"BSTAR":0.00067214198,"MEAN_MOTION_DOT":0.00010059,"MEAN_MOTION_DDOT":0}]
